ONEWEB-0387             
1 49313U 21090AL  25008.44785470  .00000140  00000+0  31338-3 0  9991
2 49313  87.9246  18.9064 0002124  84.0773 276.0602 13.20772132161867
ONEWEB-0388             
1 49314U 21090AM  25007.84583134 -.00000011  00000+0 -60588-4 0  9997
2 49314  87.9158  49.4285 0001807  92.3186 267.8154 13.19726394157122
ONEWEB-0389             
1 50469U 21132A   25007.72041604  .00000069  00000+0  14378-3 0  9991
2 50469  87.9105 110.5593 0001903  94.5698 265.5650 13.17650799148880
ONEWEB-0390             
1 50470U 21132B   25008.32959121  .00000094  00000+0  20830-3 0  9990
2 50470  87.9103 110.4453 0002039 108.6525 251.4828 13.17651043150259
ONEWEB-0391             
1 50471U 21132C   25008.17942160  .00000057  00000+0  11403-3 0  9994
2 50471  87.9111 110.4749 0002520  89.8559 270.2861 13.17650396150233
ONEWEB-0392             
1 50472U 21132D   25007.67822436 -.00000042  00000+0 -14185-3 0  9998
2 50472  87.9100 110.5456 0001992  93.8207 266.3152 13.17647033148910
ONEWEB-0393             
1 50473U 21132E   25008.33478947  .00000138  00000+0  32234-3 0  9996
2 50473  87.9114 110.4123 0001987 102.3271 257.8083 13.17650211150280
ONEWEB-0394             
1 50474U 21132F   25007.65309076  .00000019  00000+0  14723-4 0  9999
2 50474  87.9095  80.0012 0001799  98.6699 261.4637 13.18688333152331
